PAYLOAD ADAPTER         
1 66377U 25255B   25323.93860461  .00039075  00000+0  89335-3 0  9994
2 66377  52.9972 286.3255 0014295 328.0382  31.9753 15.42372068  1695
SHIYAN-32 02            
1 66378U 25255C   25323.93675130  .00041314  00000+0  93452-3 0  9996
2 66378  52.9985 286.3140 0013702 332.0929  27.9339 15.42672925  1697
SHIYAN-32 03            
1 66379U 25255D   25323.93935043  .00020913  00000+0  48939-3 0  9991
2 66379  52.9976 286.3305 0015063 331.1328  28.8841 15.42008825  1719
STARLINK-35139          
1 66380U 25257A   25323.91668981 -.01460939  00000+0 -75291-2 0  9996
2 66380  53.1537  14.2669 0000716  80.5341 278.8648 15.83096012  2765
STARLINK-35158          
1 66381U 25257B   25323.91668981 -.01465595  00000+0 -75453-2 0  9990
2 66381  53.1533  14.2627 0000889  82.8550 278.2616 15.83124467  2826
STARLINK-35639          
1 66382U 25257C   25323.91668981 -.01473513  00000+0 -75952-2 0  9994
2 66382  53.1529  14.2578 0000871  76.8474 286.5892 15.83114133  2823
STARLINK-35690          
1 66383U 25257D   25323.91668981 -.01502936  00000+0 -78244-2 0  9994
2 66383  53.1529  14.2440 0000717  87.7612 282.0930 15.82962044  2821
STARLINK-35662          
1 66384U 25257E   25323.91668981 -.01515838  00000+0 -78974-2 0  9990
2 66384  53.1530  14.2403 0000910  79.4310 292.5299 15.82968847  2822
STARLINK-35659          
1 66385U 25257F   25323.91668981 -.01494641  00000+0 -77661-2 0  9991
2 66385  53.1531  14.2496 0000969  74.8749 292.5126 15.82984646  2829
STARLINK-35651          
1 66386U 25257G   25323.91668981 -.01525784  00000+0 -79749-2 0  9994
2 66386  53.1530  14.2341 0000673  83.1408 291.6051 15.82922526  2821
STARLINK-35661          
1 66387U 25257H   25323.91668981 -.01534018  00000+0 -80292-2 0  9990
2 66387  53.1531  14.2295 0000949  79.6846 297.4178 15.82905509  2829
STARLINK-35647          
1 66388U 25257J   25323.91668981 -.01548735  00000+0 -81307-2 0  9990
2 66388  53.1531  14.2239 0000920  81.8011 297.9602 15.82870572  2824
