CCSDS_OMM_VERS = 2.0
CREATION_DATE  = 
ORIGINATOR     = 

OBJECT_NAME    = SHIYAN-32 B
OBJECT_ID      = 2025-255B
CENTER_NAME    = EARTH
REF_FRAME      = TEME
TIME_SYSTEM    = UTC
MEAN_ELEMENT_THEORY = SGP/SGP4

EPOCH          = 2025-11-19T22:31:35.438304
MEAN_MOTION    = 15.42372068
ECCENTRICITY   = .00142951
INCLINATION    = 52.9972
RA_OF_ASC_NODE = 286.3255
ARG_OF_PERICENTER = 328.0382
MEAN_ANOMALY   = 31.9753

EPHEMERIS_TYPE = 0
CLASSIFICATION_TYPE = U
NORAD_CAT_ID   = 66377
ELEMENT_SET_NO = 999
REV_AT_EPOCH   = 169
BSTAR          = .89334608E-3
MEAN_MOTION_DOT = .39075E-3
MEAN_MOTION_DDOT = 0

CCSDS_OMM_VERS = 2.0
CREATION_DATE  = 
ORIGINATOR     = 

OBJECT_NAME    = SHIYAN-32 C
OBJECT_ID      = 2025-255C
CENTER_NAME    = EARTH
REF_FRAME      = TEME
TIME_SYSTEM    = UTC
MEAN_ELEMENT_THEORY = SGP/SGP4

EPOCH          = 2025-11-19T22:28:55.312320
MEAN_MOTION    = 15.42672925
ECCENTRICITY   = .00137029
INCLINATION    = 52.9985
RA_OF_ASC_NODE = 286.3140
ARG_OF_PERICENTER = 332.0929
MEAN_ANOMALY   = 27.9339

EPHEMERIS_TYPE = 0
CLASSIFICATION_TYPE = U
NORAD_CAT_ID   = 66378
ELEMENT_SET_NO = 999
REV_AT_EPOCH   = 169
BSTAR          = .9345186E-3
MEAN_MOTION_DOT = .41314E-3
MEAN_MOTION_DDOT = 0

CCSDS_OMM_VERS = 2.0
CREATION_DATE  = 
ORIGINATOR     = 

OBJECT_NAME    = CZ-11H R/B
OBJECT_ID      = 2025-255D
CENTER_NAME    = EARTH
REF_FRAME      = TEME
TIME_SYSTEM    = UTC
MEAN_ELEMENT_THEORY = SGP/SGP4

EPOCH          = 2025-11-19T22:32:39.877152
MEAN_MOTION    = 15.42008825
ECCENTRICITY   = .00150638
INCLINATION    = 52.9976
RA_OF_ASC_NODE = 286.3305
ARG_OF_PERICENTER = 331.1328
MEAN_ANOMALY   = 28.8841

EPHEMERIS_TYPE = 0
CLASSIFICATION_TYPE = U
NORAD_CAT_ID   = 66379
ELEMENT_SET_NO = 999
REV_AT_EPOCH   = 171
BSTAR          = .48939369E-3
MEAN_MOTION_DOT = .20913E-3
MEAN_MOTION_DDOT = 0

CCSDS_OMM_VERS = 2.0
CREATION_DATE  = 
ORIGINATOR     = 

OBJECT_NAME    = STARLINK-35139
OBJECT_ID      = 2025-257A
CENTER_NAME    = EARTH
REF_FRAME      = TEME
TIME_SYSTEM    = UTC
MEAN_ELEMENT_THEORY = SGP/SGP4

EPOCH          = 2025-11-19T22:00:01.999584
MEAN_MOTION    = 15.83096012
ECCENTRICITY   = .00007163
INCLINATION    = 53.1537
RA_OF_ASC_NODE = 14.2669
ARG_OF_PERICENTER = 80.5341
MEAN_ANOMALY   = 278.8648

EPHEMERIS_TYPE = 0
CLASSIFICATION_TYPE = U
NORAD_CAT_ID   = 66380
ELEMENT_SET_NO = 999
REV_AT_EPOCH   = 276
BSTAR          = -.75291258E-2
MEAN_MOTION_DOT = -.1460939E-1
MEAN_MOTION_DDOT = 0

CCSDS_OMM_VERS = 2.0
CREATION_DATE  = 
ORIGINATOR     = 

OBJECT_NAME    = STARLINK-35158
OBJECT_ID      = 2025-257B
CENTER_NAME    = EARTH
REF_FRAME      = TEME
TIME_SYSTEM    = UTC
MEAN_ELEMENT_THEORY = SGP/SGP4

EPOCH          = 2025-11-19T22:00:01.999584
MEAN_MOTION    = 15.83124467
ECCENTRICITY   = .00008899
INCLINATION    = 53.1533
RA_OF_ASC_NODE = 14.2627
ARG_OF_PERICENTER = 82.8550
MEAN_ANOMALY   = 278.2616

EPHEMERIS_TYPE = 0
CLASSIFICATION_TYPE = U
NORAD_CAT_ID   = 66381
ELEMENT_SET_NO = 999
REV_AT_EPOCH   = 282
BSTAR          = -.75453344E-2
MEAN_MOTION_DOT = -.1465595E-1
MEAN_MOTION_DDOT = 0

CCSDS_OMM_VERS = 2.0
CREATION_DATE  = 
ORIGINATOR     = 

OBJECT_NAME    = STARLINK-35639
OBJECT_ID      = 2025-257C
CENTER_NAME    = EARTH
REF_FRAME      = TEME
TIME_SYSTEM    = UTC
MEAN_ELEMENT_THEORY = SGP/SGP4

EPOCH          = 2025-11-19T22:00:01.999584
MEAN_MOTION    = 15.83114133
ECCENTRICITY   = .00008716
INCLINATION    = 53.1529
RA_OF_ASC_NODE = 14.2578
ARG_OF_PERICENTER = 76.8474
MEAN_ANOMALY   = 286.5892

EPHEMERIS_TYPE = 0
CLASSIFICATION_TYPE = U
NORAD_CAT_ID   = 66382
ELEMENT_SET_NO = 999
REV_AT_EPOCH   = 282
BSTAR          = -.75952423E-2
MEAN_MOTION_DOT = -.1473513E-1
MEAN_MOTION_DDOT = 0

CCSDS_OMM_VERS = 2.0
CREATION_DATE  = 
ORIGINATOR     = 

OBJECT_NAME    = STARLINK-35690
OBJECT_ID      = 2025-257D
CENTER_NAME    = EARTH
REF_FRAME      = TEME
TIME_SYSTEM    = UTC
MEAN_ELEMENT_THEORY = SGP/SGP4

EPOCH          = 2025-11-19T22:00:01.999584
MEAN_MOTION    = 15.82962044
ECCENTRICITY   = .00007174
INCLINATION    = 53.1529
RA_OF_ASC_NODE = 14.2440
ARG_OF_PERICENTER = 87.7612
MEAN_ANOMALY   = 282.0930

EPHEMERIS_TYPE = 0
CLASSIFICATION_TYPE = U
NORAD_CAT_ID   = 66383
ELEMENT_SET_NO = 999
REV_AT_EPOCH   = 282
BSTAR          = -.78244138E-2
MEAN_MOTION_DOT = -.1502936E-1
MEAN_MOTION_DDOT = 0

CCSDS_OMM_VERS = 2.0
CREATION_DATE  = 
ORIGINATOR     = 

OBJECT_NAME    = STARLINK-35662
OBJECT_ID      = 2025-257E
CENTER_NAME    = EARTH
REF_FRAME      = TEME
TIME_SYSTEM    = UTC
MEAN_ELEMENT_THEORY = SGP/SGP4

EPOCH          = 2025-11-19T22:00:01.999584
MEAN_MOTION    = 15.82968847
ECCENTRICITY   = .00009102
INCLINATION    = 53.1530
RA_OF_ASC_NODE = 14.2403
ARG_OF_PERICENTER = 79.4310
MEAN_ANOMALY   = 292.5299

EPHEMERIS_TYPE = 0
CLASSIFICATION_TYPE = U
NORAD_CAT_ID   = 66384
ELEMENT_SET_NO = 999
REV_AT_EPOCH   = 282
BSTAR          = -.78973807E-2
MEAN_MOTION_DOT = -.1515838E-1
MEAN_MOTION_DDOT = 0

CCSDS_OMM_VERS = 2.0
CREATION_DATE  = 
ORIGINATOR     = 

OBJECT_NAME    = STARLINK-35659
OBJECT_ID      = 2025-257F
CENTER_NAME    = EARTH
REF_FRAME      = TEME
TIME_SYSTEM    = UTC
MEAN_ELEMENT_THEORY = SGP/SGP4

EPOCH          = 2025-11-19T22:00:01.999584
MEAN_MOTION    = 15.82984646
ECCENTRICITY   = .00009697
INCLINATION    = 53.1531
RA_OF_ASC_NODE = 14.2496
ARG_OF_PERICENTER = 74.8749
MEAN_ANOMALY   = 292.5126

EPHEMERIS_TYPE = 0
CLASSIFICATION_TYPE = U
NORAD_CAT_ID   = 66385
ELEMENT_SET_NO = 999
REV_AT_EPOCH   = 282
BSTAR          = -.77660954E-2
MEAN_MOTION_DOT = -.1494641E-1
MEAN_MOTION_DDOT = 0

CCSDS_OMM_VERS = 2.0
CREATION_DATE  = 
ORIGINATOR     = 

OBJECT_NAME    = STARLINK-35651
OBJECT_ID      = 2025-257G
CENTER_NAME    = EARTH
REF_FRAME      = TEME
TIME_SYSTEM    = UTC
MEAN_ELEMENT_THEORY = SGP/SGP4

EPOCH          = 2025-11-19T22:00:01.999584
MEAN_MOTION    = 15.82922526
ECCENTRICITY   = .00006732
INCLINATION    = 53.1530
RA_OF_ASC_NODE = 14.2341
ARG_OF_PERICENTER = 83.1408
MEAN_ANOMALY   = 291.6051

EPHEMERIS_TYPE = 0
CLASSIFICATION_TYPE = U
NORAD_CAT_ID   = 66386
ELEMENT_SET_NO = 999
REV_AT_EPOCH   = 282
BSTAR          = -.79748657E-2
MEAN_MOTION_DOT = -.1525784E-1
MEAN_MOTION_DDOT = 0

CCSDS_OMM_VERS = 2.0
CREATION_DATE  = 
ORIGINATOR     = 

OBJECT_NAME    = STARLINK-35661
OBJECT_ID      = 2025-257H
CENTER_NAME    = EARTH
REF_FRAME      = TEME
TIME_SYSTEM    = UTC
MEAN_ELEMENT_THEORY = SGP/SGP4

EPOCH          = 2025-11-19T22:00:01.999584
MEAN_MOTION    = 15.82905509
ECCENTRICITY   = .00009493
INCLINATION    = 53.1531
RA_OF_ASC_NODE = 14.2295
ARG_OF_PERICENTER = 79.6846
MEAN_ANOMALY   = 297.4178

EPHEMERIS_TYPE = 0
CLASSIFICATION_TYPE = U
NORAD_CAT_ID   = 66387
ELEMENT_SET_NO = 999
REV_AT_EPOCH   = 282
BSTAR          = -.80292199E-2
MEAN_MOTION_DOT = -.1534018E-1
MEAN_MOTION_DDOT = 0

CCSDS_OMM_VERS = 2.0
CREATION_DATE  = 
ORIGINATOR     = 

OBJECT_NAME    = STARLINK-35647
OBJECT_ID      = 2025-257J
CENTER_NAME    = EARTH
REF_FRAME      = TEME
TIME_SYSTEM    = UTC
MEAN_ELEMENT_THEORY = SGP/SGP4

EPOCH          = 2025-11-19T22:00:01.999584
MEAN_MOTION    = 15.82870572
ECCENTRICITY   = .00009201
INCLINATION    = 53.1531
RA_OF_ASC_NODE = 14.2239
ARG_OF_PERICENTER = 81.8011
MEAN_ANOMALY   = 297.9602

EPHEMERIS_TYPE = 0
CLASSIFICATION_TYPE = U
NORAD_CAT_ID   = 66388
ELEMENT_SET_NO = 999
REV_AT_EPOCH   = 282
BSTAR          = -.81306805E-2
MEAN_MOTION_DOT = -.1548735E-1
MEAN_MOTION_DDOT = 0

